{"type": "FeatureCollection", "features": [{"type": "Feature", "properties": {"norad_id": 2807, "name": "OPS 7218 (TRANSIT 16)", "group": "nnss", "lat": -35.070111869067766, "lon": -6.109791287703939, "alt_km": 1090.874448669997, "timestamp": "2025-12-09T14:52:26.430296+00:00", "meta": {"OBJECT_NAME": "OPS 7218 (TRANSIT 16)", "OBJECT_ID": "1967-048A", "EPOCH": "2025-12-09T07:59:40.410240", "MEAN_MOTION": 13.5072133, "ECCENTRICITY": 0.00218125, "INCLINATION": 89.6731, "RA_OF_ASC_NODE": 354.1293, "ARG_OF_PERICENTER": 123.2021, "MEAN_ANOMALY": 248.9195, "EPHEMERIS_TYPE": 0, "CLASSIFICATION_TYPE": "U", "NORAD_CAT_ID": 2807, "ELEMENT_SET_NO": 999, "REV_AT_EPOCH": 88230, "BSTAR": 0.00022648382, "MEAN_MOTION_DOT": 1.56e-06, "MEAN_MOTION_DDOT": 0}, "tle": {"line1": "1 02807U 67048A   25343.33310660  .00000156  00000+0  22648-3 0  9997", "line2": "2 02807  89.6731 354.1293 0021812 123.2021 248.9195 13.50721330882309"}}, "geometry": {"type": "Point", "coordinates": [-6.109791287703939, -35.070111869067766]}}, {"type": "Feature", "properties": {"norad_id": 2965, "name": "OPS 4947 (TRANSIT 17)", "group": "nnss", "lat": -0.6657170413738889, "lon": 24.665042244186115, "alt_km": 1077.2523387189904, "timestamp": "2025-12-09T14:52:26.430318+00:00", "meta": {"OBJECT_NAME": "OPS 4947 (TRANSIT 17)", "OBJECT_ID": "1967-092A", "EPOCH": "2025-12-09T04:32:40.270272", "MEAN_MOTION": 13.53452129, "ECCENTRICITY": 0.00459875, "INCLINATION": 89.2499, "RA_OF_ASC_NODE": 24.7065, "ARG_OF_PERICENTER": 245.1537, "MEAN_ANOMALY": 177.9997, "EPHEMERIS_TYPE": 0, "CLASSIFICATION_TYPE": "U", "NORAD_CAT_ID": 2965, "ELEMENT_SET_NO": 999, "REV_AT_EPOCH": 87049, "BSTAR": 0.00022947692, "MEAN_MOTION_DOT": 1.66e-06, "MEAN_MOTION_DDOT": 0}, "tle": {"line1": "1 02965U 67092A   25343.18935498  .00000166  00000+0  22948-3 0  9990", "line2": "2 02965  89.2499  24.7065 0045987 245.1537 177.9997 13.53452129870491"}}, "geometry": {"type": "Point", "coordinates": [24.665042244186115, -0.6657170413738889]}}, {"type": "Feature", "properties": {"norad_id": 3133, "name": "OPS 7034 (TRANSIT 18)", "group": "nnss", "lat": 10.677947160532426, "lon": 93.6351648385749, "alt_km": 1013.8941041390317, "timestamp": "2025-12-09T14:52:26.430332+00:00", "meta": {"OBJECT_NAME": "OPS 7034 (TRANSIT 18)", "OBJECT_ID": "1968-012A", "EPOCH": "2025-12-09T07:29:45.033792", "MEAN_MOTION": 13.5156455, "ECCENTRICITY": 0.00735208, "INCLINATION": 90.0276, "RA_OF_ASC_NODE": 273.6291, "ARG_OF_PERICENTER": 179.0874, "MEAN_ANOMALY": 295.335, "EPHEMERIS_TYPE": 0, "CLASSIFICATION_TYPE": "U", "NORAD_CAT_ID": 3133, "ELEMENT_SET_NO": 999, "REV_AT_EPOCH": 56872, "BSTAR": 0.00028816135, "MEAN_MOTION_DOT": 2e-06, "MEAN_MOTION_DDOT": 0}, "tle": {"line1": "1 03133U 68012A   25343.31232678  .00000200  00000+0  28816-3 0  9995", "line2": "2 03133  90.0276 273.6291 0073520 179.0874 295.3350 13.51564550568729"}}, "geometry": {"type": "Point", "coordinates": [93.6351648385749, 10.677947160532426]}}, {"type": "Feature", "properties": {"norad_id": 4507, "name": "NNSS 19 (TRANSIT 19)", "group": "nnss", "lat": 36.98347124268424, "lon": 54.53592576230204, "alt_km": 1183.7162004498168, "timestamp": "2025-12-09T14:52:26.430344+00:00", "meta": {"OBJECT_NAME": "NNSS 19 (TRANSIT 19)", "OBJECT_ID": "1970-067A", "EPOCH": "2025-12-09T05:16:19.450848", "MEAN_MOTION": 13.51313929, "ECCENTRICITY": 0.01707629, "INCLINATION": 90.0057, "RA_OF_ASC_NODE": 234.5314, "ARG_OF_PERICENTER": 303.6646, "MEAN_ANOMALY": 54.8319, "EPHEMERIS_TYPE": 0, "CLASSIFICATION_TYPE": "U", "NORAD_CAT_ID": 4507, "ELEMENT_SET_NO": 999, "REV_AT_EPOCH": 72174, "BSTAR": 0.00032395612, "MEAN_MOTION_DOT": 2.38e-06, "MEAN_MOTION_DDOT": 0}, "tle": {"line1": "1 04507U 70067A   25343.21966957  .00000238  00000+0  32396-3 0  9996", "line2": "2 04507  90.0057 234.5314 0170762 303.6646  54.8319 13.51313929721740"}}, "geometry": {"type": "Point", "coordinates": [54.53592576230204, 36.98347124268424]}}, {"type": "Feature", "properties": {"norad_id": 6909, "name": "NNSS 20 (TRANSIT 20)", "group": "nnss", "lat": -11.269615772326862, "lon": -104.92782604419192, "alt_km": 1014.447337683041, "timestamp": "2025-12-09T14:52:26.430356+00:00", "meta": {"OBJECT_NAME": "NNSS 20 (TRANSIT 20)", "OBJECT_ID": "1973-081A", "EPOCH": "2025-12-09T06:10:24.982176", "MEAN_MOTION": 13.71431877, "ECCENTRICITY": 0.01566106, "INCLINATION": 89.8562, "RA_OF_ASC_NODE": 255.1063, "ARG_OF_PERICENTER": 88.6245, "MEAN_ANOMALY": 273.2852, "EPHEMERIS_TYPE": 0, "CLASSIFICATION_TYPE": "U", "NORAD_CAT_ID": 6909, "ELEMENT_SET_NO": 999, "REV_AT_EPOCH": 80313, "BSTAR": 0.00036306441, "MEAN_MOTION_DOT": 3.68e-06, "MEAN_MOTION_DDOT": 0}, "tle": {"line1": "1 06909U 73081A   25343.25723359  .00000368  00000+0  36306-3 0  9993", "line2": "2 06909  89.8562 255.1063 0156610  88.6245 273.2852 13.71431877803134"}}, "geometry": {"type": "Point", "coordinates": [-104.92782604419192, -11.269615772326862]}}, {"type": "Feature", "properties": {"norad_id": 10457, "name": "TRANSAT", "group": "nnss", "lat": 4.8029786218619375, "lon": -101.32213386839767, "alt_km": 1061.3187516335329, "timestamp": "2025-12-09T14:52:26.430367+00:00", "meta": {"OBJECT_NAME": "TRANSAT", "OBJECT_ID": "1977-106A", "EPOCH": "2025-12-09T07:10:55.407360", "MEAN_MOTION": 13.48942869, "ECCENTRICITY": 0.00250666, "INCLINATION": 89.6481, "RA_OF_ASC_NODE": 78.7188, "ARG_OF_PERICENTER": 199.5833, "MEAN_ANOMALY": 220.1387, "EPHEMERIS_TYPE": 0, "CLASSIFICATION_TYPE": "U", "NORAD_CAT_ID": 10457, "ELEMENT_SET_NO": 999, "REV_AT_EPOCH": 36697, "BSTAR": 0.00021823652, "MEAN_MOTION_DOT": 1.47e-06, "MEAN_MOTION_DDOT": 0}, "tle": {"line1": "1 10457U 77106A   25343.29925240  .00000147  00000+0  21824-3 0  9999", "line2": "2 10457  89.6481  78.7188 0025066 199.5833 220.1387 13.48942869366979"}}, "geometry": {"type": "Point", "coordinates": [-101.32213386839767, 4.8029786218619375]}}, {"type": "Feature", "properties": {"norad_id": 12458, "name": "NOVA 1", "group": "nnss", "lat": 4.320012898115419, "lon": 91.44041429461195, "alt_km": 1178.0578385946174, "timestamp": "2025-12-09T14:52:26.430379+00:00", "meta": {"OBJECT_NAME": "NOVA 1", "OBJECT_ID": "1981-044A", "EPOCH": "2025-12-09T07:51:55.116000", "MEAN_MOTION": 13.23277978, "ECCENTRICITY": 0.00158079, "INCLINATION": 89.8523, "RA_OF_ASC_NODE": 91.4334, "ARG_OF_PERICENTER": 112.3663, "MEAN_ANOMALY": 301.8764, "EPHEMERIS_TYPE": 0, "CLASSIFICATION_TYPE": "U", "NORAD_CAT_ID": 12458, "ELEMENT_SET_NO": 999, "REV_AT_EPOCH": 15141, "BSTAR": 0.00024038287, "MEAN_MOTION_DOT": 1.11e-06, "MEAN_MOTION_DDOT": 0}, "tle": {"line1": "1 12458U 81044A   25343.32772125  .00000111  00000+0  24038-3 0  9995", "line2": "2 12458  89.8523  91.4334 0015807 112.3663 301.8764 13.23277978151414"}}, "geometry": {"type": "Point", "coordinates": [91.44041429461195, 4.320012898115419]}}, {"type": "Feature", "properties": {"norad_id": 15362, "name": "NOVA 3", "group": "nnss", "lat": -59.629606614267395, "lon": -99.71090486518428, "alt_km": 1184.7754040334175, "timestamp": "2025-12-09T14:52:26.430390+00:00", "meta": {"OBJECT_NAME": "NOVA 3", "OBJECT_ID": "1984-110A", "EPOCH": "2025-12-09T06:40:21.383328", "MEAN_MOTION": 13.23043997, "ECCENTRICITY": 0.00307571, "INCLINATION": 90.1223, "RA_OF_ASC_NODE": 80.4939, "ARG_OF_PERICENTER": 341.7422, "MEAN_ANOMALY": 71.4912, "EPHEMERIS_TYPE": 0, "CLASSIFICATION_TYPE": "U", "NORAD_CAT_ID": 15362, "ELEMENT_SET_NO": 999, "REV_AT_EPOCH": 98653, "BSTAR": 0.00021749854, "MEAN_MOTION_DOT": 1e-06, "MEAN_MOTION_DDOT": 0}, "tle": {"line1": "1 15362U 84110A   25343.27802527  .00000100  00000+0  21750-3 0  9999", "line2": "2 15362  90.1223  80.4939 0030757 341.7422  71.4912 13.23043997986530"}}, "geometry": {"type": "Point", "coordinates": [-99.71090486518428, -59.629606614267395]}}, {"type": "Feature", "properties": {"norad_id": 15935, "name": "OSCAR 30", "group": "nnss", "lat": 3.4632286842340783, "lon": -80.19405997046863, "alt_km": 1110.5945275158974, "timestamp": "2025-12-09T14:52:26.430401+00:00", "meta": {"OBJECT_NAME": "OSCAR 30", "OBJECT_ID": "1985-066A", "EPOCH": "2025-12-09T07:06:20.232864", "MEAN_MOTION": 13.36077505, "ECCENTRICITY": 0.01694084, "INCLINATION": 90.1649, "RA_OF_ASC_NODE": 99.7907, "ARG_OF_PERICENTER": 93.5139, "MEAN_ANOMALY": 325.0204, "EPHEMERIS_TYPE": 0, "CLASSIFICATION_TYPE": "U", "NORAD_CAT_ID": 15935, "ELEMENT_SET_NO": 999, "REV_AT_EPOCH": 96407, "BSTAR": 0.0002821144, "MEAN_MOTION_DOT": 1.67e-06, "MEAN_MOTION_DDOT": 0}, "tle": {"line1": "1 15935U 85066A   25343.29606751  .00000167  00000+0  28211-3 0  9991", "line2": "2 15935  90.1649  99.7907 0169408  93.5139 325.0204 13.36077505964072"}}, "geometry": {"type": "Point", "coordinates": [-80.19405997046863, 3.4632286842340783]}}, {"type": "Feature", "properties": {"norad_id": 15936, "name": "OSCAR 24", "group": "nnss", "lat": -72.36053158087678, "lon": -88.3124733859634, "alt_km": 1245.6856803474338, "timestamp": "2025-12-09T14:52:26.430412+00:00", "meta": {"OBJECT_NAME": "OSCAR 24", "OBJECT_ID": "1985-066B", "EPOCH": "2025-12-09T06:43:42.760128", "MEAN_MOTION": 13.35935065, "ECCENTRICITY": 0.01704679, "INCLINATION": 90.1788, "RA_OF_ASC_NODE": 92.2442, "ARG_OF_PERICENTER": 99.9937, "MEAN_ANOMALY": 320.128, "EPHEMERIS_TYPE": 0, "CLASSIFICATION_TYPE": "U", "NORAD_CAT_ID": 15936, "ELEMENT_SET_NO": 999, "REV_AT_EPOCH": 96597, "BSTAR": 0.00024994723, "MEAN_MOTION_DOT": 1.49e-06, "MEAN_MOTION_DDOT": 0}, "tle": {"line1": "1 15936U 85066B   25343.28035602  .00000149  00000+0  24995-3 0  9997", "line2": "2 15936  90.1788  92.2442 0170467  99.9937 320.1280 13.35935065965975"}}, "geometry": {"type": "Point", "coordinates": [-88.3124733859634, -72.36053158087678]}}]}